{"type": "FeatureCollection", "features": [ {"type": "Feature", "properties": {"norad_id": 30663, "name": "FENGYUN 1C DEB", "group": "fengyun-1c-debris", "lat": -34.00697000059878, "lon": 87.61043203971985, "alt_km": 1280.4099520528562, "timestamp": "2025-12-24T03:53:29.924970+00:00", "meta": {"OBJECT_NAME": "FENGYUN 1C DEB", "OBJECT_ID": "1999-025APV", "EPOCH": "2025-12-23T05:06:25.082784", "MEAN_MOTION": 13.2319364, "ECCENTRICITY": 0.0649196, "INCLINATION": 99.3034, "RA_OF_ASC_NODE": 273.1066, "ARG_OF_PERICENTER": 111.1171, "MEAN_ANOMALY": 256.0579, "EPHEMERIS_TYPE": 0, "CLASSIFICATION_TYPE": "U", "NORAD_CAT_ID": 30663, "ELEMENT_SET_NO": 999, "REV_AT_EPOCH": 89186, "BSTAR": 0.0028916729, "MEAN_MOTION_DOT": 3.763e-05, "MEAN_MOTION_DDOT": 0}, "tle": {"line1": "1 30663U 99025APV 25357.21279031  .00003763  00000+0  28917-2 0  9997", "line2": "2 30663  99.3034 273.1066 0649196 111.1171 256.0579 13.23193640891869"}}, "geometry": {"type": "Point", "coordinates": [87.61043203971985, -34.00697000059878]}}, {"type": "Feature", "properties": {"norad_id": 30665, "name": "FENGYUN 1C DEB", "group": "fengyun-1c-debris", "lat": 63.12223762255001, "lon": 168.73960768729697, "alt_km": 816.4972502948704, "timestamp": "2025-12-24T03:53:29.924980+00:00", "meta": {"OBJECT_NAME": "FENGYUN 1C DEB", "OBJECT_ID": "1999-025APX", "EPOCH": "2025-12-20T21:16:17.931360", "MEAN_MOTION": 14.12381178, "ECCENTRICITY": 0.0067638, "INCLINATION": 99.2086, "RA_OF_ASC_NODE": 326.7083, "ARG_OF_PERICENTER": 179.169, "MEAN_ANOMALY": 209.6706, "EPHEMERIS_TYPE": 0, "CLASSIFICATION_TYPE": "U", "NORAD_CAT_ID": 30665, "ELEMENT_SET_NO": 999, "REV_AT_EPOCH": 96085, "BSTAR": 0.0010029, "MEAN_MOTION_DOT": 1.843e-05, "MEAN_MOTION_DDOT": 0}, "tle": {"line1": "1 30665U 99025APX 25354.88631865  .00001843  00000+0  10029-2 0  9998", "line2": "2 30665  99.2086 326.7083 0067638 179.1690 209.6706 14.12381178960852"}}, "geometry": {"type": "Point", "coordinates": [168.73960768729697, 63.12223762255001]}}, {"type": "Feature", "properties": {"norad_id": 30666, "name": "FENGYUN 1C DEB", "group": "fengyun-1c-debris", "lat": -62.293035411443036, "lon": 144.21678206322096, "alt_km": 921.0581505607997, "timestamp": "2025-12-24T03:53:29.924991+00:00", "meta": {"OBJECT_NAME": "FENGYUN 1C DEB", "OBJECT_ID": "1999-025APY", "EPOCH": "2025-12-23T11:54:37.707264", "MEAN_MOTION": 14.02564527, "ECCENTRICITY": 0.0061405, "INCLINATION": 98.8232, "RA_OF_ASC_NODE": 340.7746, "ARG_OF_PERICENTER": 114.6272, "MEAN_ANOMALY": 8.076, "EPHEMERIS_TYPE": 0, "CLASSIFICATION_TYPE": "U", "NORAD_CAT_ID": 30666, "ELEMENT_SET_NO": 999, "REV_AT_EPOCH": 96261, "BSTAR": 0.00038054, "MEAN_MOTION_DOT": 5.54e-06, "MEAN_MOTION_DDOT": 0}, "tle": {"line1": "1 30666U 99025APY 25357.49626976  .00000554  00000+0  38054-3 0  9993", "line2": "2 30666  98.8232 340.7746 0061405 114.6272   8.0760 14.02564527962616"}}, "geometry": {"type": "Point", "coordinates": [144.21678206322096, -62.293035411443036]}}, {"type": "Feature", "properties": {"norad_id": 30668, "name": "FENGYUN 1C DEB", "group": "fengyun-1c-debris", "lat": -26.85156200256226, "lon": -113.23637631431977, "alt_km": 799.5256188336789, "timestamp": "2025-12-24T03:53:29.925001+00:00", "meta": {"OBJECT_NAME": "FENGYUN 1C DEB", "OBJECT_ID": "1999-025AQA", "EPOCH": "2025-12-23T04:55:21.657792", "MEAN_MOTION": 14.12390526, "ECCENTRICITY": 0.00799078, "INCLINATION": 99.1305, "RA_OF_ASC_NODE": 70.459, "ARG_OF_PERICENTER": 217.1809, "MEAN_ANOMALY": 166.5563, "EPHEMERIS_TYPE": 0, "CLASSIFICATION_TYPE": "U", "NORAD_CAT_ID": 30668, "ELEMENT_SET_NO": 999, "REV_AT_EPOCH": 96203, "BSTAR": 0.0018354927, "MEAN_MOTION_DOT": 3.443e-05, "MEAN_MOTION_DDOT": 0}, "tle": {"line1": "1 30668U 99025AQA 25357.20511178  .00003443  00000+0  18355-2 0  9992", "line2": "2 30668  99.1305  70.4590 0079907 217.1809 166.5563 14.12390526962032"}}, "geometry": {"type": "Point", "coordinates": [-113.23637631431977, -26.85156200256226]}}, {"type": "Feature", "properties": {"norad_id": 30669, "name": "FENGYUN 1C DEB", "group": "fengyun-1c-debris", "lat": -48.521293991346774, "lon": 104.34695315804011, "alt_km": 882.406466310952, "timestamp": "2025-12-24T03:53:29.925011+00:00", "meta": {"OBJECT_NAME": "FENGYUN 1C DEB", "OBJECT_ID": "1999-025AQB", "EPOCH": "2025-12-23T13:57:32.736096", "MEAN_MOTION": 14.02766516, "ECCENTRICITY": 0.0118248, "INCLINATION": 98.6363, "RA_OF_ASC_NODE": 293.6951, "ARG_OF_PERICENTER": 145.9003, "MEAN_ANOMALY": 31.9487, "EPHEMERIS_TYPE": 0, "CLASSIFICATION_TYPE": "U", "NORAD_CAT_ID": 30669, "ELEMENT_SET_NO": 999, "REV_AT_EPOCH": 95605, "BSTAR": 0.0013931, "MEAN_MOTION_DOT": 2.251e-05, "MEAN_MOTION_DDOT": 0}, "tle": {"line1": "1 30669U 99025AQB 25357.58162889  .00002251  00000+0  13931-2 0  9996", "line2": "2 30669  98.6363 293.6951 0118248 145.9003  31.9487 14.02766516956057"}}, "geometry": {"type": "Point", "coordinates": [104.34695315804011, -48.521293991346774]}}, {"type": "Feature", "properties": {"norad_id": 30670, "name": "FENGYUN 1C DEB", "group": "fengyun-1c-debris", "lat": -31.701217105684798, "lon": 47.76607522239842, "alt_km": 835.4008154412704, "timestamp": "2025-12-24T03:53:29.925021+00:00", "meta": {"OBJECT_NAME": "FENGYUN 1C DEB", "OBJECT_ID": "1999-025AQC", "EPOCH": "2025-12-21T20:20:06.431424", "MEAN_MOTION": 14.15820847, "ECCENTRICITY": 0.003959, "INCLINATION": 98.7094, "RA_OF_ASC_NODE": 40.0711, "ARG_OF_PERICENTER": 44.0879, "MEAN_ANOMALY": 12.2318, "EPHEMERIS_TYPE": 0, "CLASSIFICATION_TYPE": "U", "NORAD_CAT_ID": 30670, "ELEMENT_SET_NO": 999, "REV_AT_EPOCH": 97281, "BSTAR": 8.9237632e-05, "MEAN_MOTION_DOT": 1.34e-06, "MEAN_MOTION_DDOT": 0}, "tle": {"line1": "1 30670U 99025AQC 25355.84729666  .00000134  00000+0  89238-4 0  9990", "line2": "2 30670  98.7094  40.0711 0039590  44.0879  12.2318 14.15820847972810"}}, "geometry": {"type": "Point", "coordinates": [47.76607522239842, -31.701217105684798]}}, {"type": "Feature", "properties": {"norad_id": 30671, "name": "FENGYUN 1C DEB", "group": "fengyun-1c-debris", "lat": 2.606628453910935, "lon": -116.65987942568188, "alt_km": 1003.2812864132447, "timestamp": "2025-12-24T03:53:29.925031+00:00", "meta": {"OBJECT_NAME": "FENGYUN 1C DEB", "OBJECT_ID": "1999-025AQD", "EPOCH": "2025-12-22T03:11:08.399040", "MEAN_MOTION": 13.95491658, "ECCENTRICITY": 0.01257678, "INCLINATION": 99.252, "RA_OF_ASC_NODE": 60.8783, "ARG_OF_PERICENTER": 7.5381, "MEAN_ANOMALY": 59.7634, "EPHEMERIS_TYPE": 0, "CLASSIFICATION_TYPE": "U", "NORAD_CAT_ID": 30671, "ELEMENT_SET_NO": 999, "REV_AT_EPOCH": 95326, "BSTAR": 0.0012094625, "MEAN_MOTION_DOT": 1.709e-05, "MEAN_MOTION_DDOT": 0}, "tle": {"line1": "1 30671U 99025AQD 25356.13273610  .00001709  00000+0  12095-2 0  9991", "line2": "2 30671  99.2520  60.8783 0125767   7.5381  59.7634 13.95491658953260"}}, "geometry": {"type": "Point", "coordinates": [-116.65987942568188, 2.606628453910935]}}, {"type": "Feature", "properties": {"norad_id": 30673, "name": "FENGYUN 1C DEB", "group": "fengyun-1c-debris", "lat": -36.79421999890147, "lon": 53.844634854353565, "alt_km": 920.7729955337445, "timestamp": "2025-12-24T03:53:29.925042+00:00", "meta": {"OBJECT_NAME": "FENGYUN 1C DEB", "OBJECT_ID": "1999-025AQF", "EPOCH": "2025-12-22T19:51:27.694368", "MEAN_MOTION": 14.03457516, "ECCENTRICITY": 0.0052822, "INCLINATION": 98.9179, "RA_OF_ASC_NODE": 45.792, "ARG_OF_PERICENTER": 114.9833, "MEAN_ANOMALY": 308.0854, "EPHEMERIS_TYPE": 0, "CLASSIFICATION_TYPE": "U", "NORAD_CAT_ID": 30673, "ELEMENT_SET_NO": 999, "REV_AT_EPOCH": 96673, "BSTAR": 9.2427e-06, "MEAN_MOTION_DOT": -2.8e-07, "MEAN_MOTION_DDOT": 0}, "tle": {"line1": "1 30673U 99025AQF 25356.82740387 -.00000028  00000+0  92427-5 0  9993", "line2": "2 30673  98.9179  45.7920 0052822 114.9833 308.0854 14.03457516966734"}}, "geometry": {"type": "Point", "coordinates": [53.844634854353565, -36.79421999890147]}}, {"type": "Feature", "properties": {"norad_id": 30674, "name": "FENGYUN 1C DEB", "group": "fengyun-1c-debris", "lat": 28.511034744968857, "lon": -12.508181164824295, "alt_km": 581.9069469508386, "timestamp": "2025-12-24T03:53:29.925052+00:00", "meta": {"OBJECT_NAME": "FENGYUN 1C DEB", "OBJECT_ID": "1999-025AQG", "EPOCH": "2025-12-22T09:30:53.307648", "MEAN_MOTION": 14.97059605, "ECCENTRICITY": 0.00251024, "INCLINATION": 98.9376, "RA_OF_ASC_NODE": 160.5709, "ARG_OF_PERICENTER": 274.9621, "MEAN_ANOMALY": 84.8731, "EPHEMERIS_TYPE": 0, "CLASSIFICATION_TYPE": "U", "NORAD_CAT_ID": 30674, "ELEMENT_SET_NO": 999, "REV_AT_EPOCH": 97496, "BSTAR": 0.0079614615, "MEAN_MOTION_DOT": 0.00093447, "MEAN_MOTION_DDOT": 0}, "tle": {"line1": "1 30674U 99025AQG 25356.39645032  .00093447  00000+0  79615-2 0  9994", "line2": "2 30674  98.9376 160.5709 0025102 274.9621  84.8731 14.97059605974965"}}, "geometry": {"type": "Point", "coordinates": [-12.508181164824295, 28.511034744968857]}}, {"type": "Feature", "properties": {"norad_id": 30675, "name": "FENGYUN 1C DEB", "group": "fengyun-1c-debris", "lat": -79.37353057190674, "lon": -157.9067119419637, "alt_km": 830.6281080086255, "timestamp": "2025-12-24T03:53:29.925062+00:00", "meta": {"OBJECT_NAME": "FENGYUN 1C DEB", "OBJECT_ID": "1999-025AQH", "EPOCH": "2025-12-23T17:16:27.265728", "MEAN_MOTION": 14.27483434, "ECCENTRICITY": 0.0053712, "INCLINATION": 98.7542, "RA_OF_ASC_NODE": 76.8621, "ARG_OF_PERICENTER": 138.0715, "MEAN_ANOMALY": 13.2439, "EPHEMERIS_TYPE": 0, "CLASSIFICATION_TYPE": "U", "NORAD_CAT_ID": 30675, "ELEMENT_SET_NO": 999, "REV_AT_EPOCH": 97048, "BSTAR": 0.0015416, "MEAN_MOTION_DOT": 3.802e-05, "MEAN_MOTION_DDOT": 0}, "tle": {"line1": "1 30675U 99025AQH 25357.71976002  .00003802  00000+0  15416-2 0  9991", "line2": "2 30675  98.7542  76.8621 0053712 138.0715  13.2439 14.27483434970481"}}, "geometry": {"type": "Point", "coordinates": [-157.9067119419637, -79.37353057190674]}}]}